[{"OBJECT_NAME":"STARLINK-31329","OBJECT_ID":"2024-044T","EPOCH":"2026-03-09T11:56:28.518720","MEAN_MOTION":15.2757817,"ECCENTRICITY":0.00017143,"INCLINATION":43.0068,"RA_OF_ASC_NODE":108.3313,"ARG_OF_PERICENTER":285.706,"MEAN_ANOMALY":74.3603,"EPHEMERIS_TYPE":0,"CLASSIFICATION_TYPE":"U","NORAD_CAT_ID":59169,"ELEMENT_SET_NO":999,"REV_AT_EPOCH":11353,"BSTAR":-3.3548724e-5,"MEAN_MOTION_DOT":-1.185e-5,"MEAN_MOTION_DDOT":0},{"OBJECT_NAME":"ALSAT-3A","OBJECT_ID":"2026-009A","EPOCH":"2026-03-09T22:30:09.645696","MEAN_MOTION":15.23911932,"ECCENTRICITY":0.00134314,"INCLINATION":97.4617,"RA_OF_ASC_NODE":143.4537,"ARG_OF_PERICENTER":76.5175,"MEAN_ANOMALY":283.7557,"EPHEMERIS_TYPE":0,"CLASSIFICATION_TYPE":"U","NORAD_CAT_ID":67474,"ELEMENT_SET_NO":999,"REV_AT_EPOCH":816,"BSTAR":0.00035948927,"MEAN_MOTION_DOT":8.636e-5,"MEAN_MOTION_DDOT":0}]
